     2.100          NAVIGATION                              RINEX VERSION / TYPE
fic2rin                                 09/24/2010 00:10:37 PGM / RUN BY / DATE
                                                            END OF HEADER
17 10  9 23 22  0  0.0  .171865336597D-03  .136424205266D-11  .000000000000D+00
     .910000000000D+02 -.692187500000D+02  .469340978507D-08 -.141013254394D+01
    -.352226197720D-05  .560275278986D-02  .836886465549D-05  .515366230011D+04
     .424800000000D+06  .108033418655D-06  .249742936921D+01 -.540167093277D-07
     .960652200254D+00  .216500000000D+03 -.251050268835D+01 -.808747973314D-08
    -.400730977768D-09  .100000000000D+01  .160200000000D+04  .000000000000D+00
     .340000000000D+01  .000000000000D+00 -.102445483208D-07  .910000000000D+02
     .417606000000D+06  .400000000000D+01
18 10  9 23 22  0  0.0  .948123633862D-04  .216004991671D-11  .000000000000D+00
     .550000000000D+02  .340000000000D+02  .566809324169D-08 -.499758738786D-01
     .185705721378D-05  .118607048644D-01  .222586095333D-05  .515372352600D+04
     .424800000000D+06  .298023223877D-07 -.169645297886D+01  .143423676491D-06
     .935508485946D+00  .322625000000D+03 -.229422153382D+01 -.904180519891D-08
     .135719938995D-10  .100000000000D+01  .160200000000D+04  .000000000000D+00
     .240000000000D+01  .000000000000D+00 -.107102096081D-07  .550000000000D+02
     .417606000000D+06  .400000000000D+01
19 10  9 23 22  0  0.0 -.683935359120D-04 -.318323145621D-11  .000000000000D+00
     .106000000000D+03 -.638437500000D+02  .468912389226D-08 -.225962686109D+01
    -.341236591339D-05  .667830428574D-02  .967085361481D-05  .515357401085D+04
     .424800000000D+06 -.912696123123D-07  .255214716038D+01 -.132247805595D-06
     .958291502516D+00  .195281250000D+03 -.598368838521D-01 -.807390773924D-08
    -.432518016111D-09  .100000000000D+01  .160200000000D+04  .000000000000D+00
     .240000000000D+01  .000000000000D+00 -.149011611938D-07  .106000000000D+03
     .417606000000D+06  .400000000000D+01
20 10  9 23 22  0  0.0  .508250668645D-04 -.341060513165D-12  .000000000000D+00
     .114000000000D+03  .508125000000D+02  .558666127830D-08  .328540535958D+00
     .264868140221D-05  .421743467450D-02  .263005495071D-05  .515382093620D+04
     .424800000000D+06 -.372529029846D-07 -.175044592924D+01  .130385160446D-07
     .935505814658D+00  .313843750000D+03  .127775834175D+01 -.891465704553D-08
     .121076471892D-09  .100000000000D+01  .160200000000D+04  .000000000000D+00
     .485000000000D+01  .000000000000D+00 -.791624188423D-08  .114000000000D+03
     .417606000000D+06  .400000000000D+01
21 10  9 23 22  0  0.0 -.902819447219D-04 -.272848410532D-11  .000000000000D+00
     .230000000000D+02  .652187500000D+02  .517485841077D-08  .111443513036D+01
     .366754829884D-05  .168568923837D-01  .111218541861D-04  .515364082909D+04
     .424800000000D+06 -.132247805595D-06 -.275264021335D+01  .208616256714D-06
     .932719238060D+00  .153968750000D+03 -.244409713116D+01 -.852142638018D-08
    -.321441960776D-11  .100000000000D+01  .160200000000D+04  .000000000000D+00
     .240000000000D+01  .000000000000D+00 -.121071934700D-07  .230000000000D+02
     .417606000000D+06  .400000000000D+01
22 10  9 23 22  0  0.0  .162437092513D-03 -.682121026330D-12  .000000000000D+00
     .850000000000D+02  .330937500000D+02  .564666377764D-08 -.949989490693D+00
     .163726508617D-05  .559983367566D-02  .215880572796D-05  .515371554565D+04
     .424800000000D+06 -.260770320892D-07 -.169179266168D+01  .894069671631D-07
     .933196159594D+00  .322593750000D+03 -.193443662551D+01 -.891287125686D-08
     .178578867098D-11  .100000000000D+01  .160200000000D+04  .000000000000D+00
     .340000000000D+01  .000000000000D+00 -.176951289177D-07  .850000000000D+02
     .417606000000D+06  .400000000000D+01
24 10  9 23 22  0  0.0  .324224121869D-03  .329691829393D-11  .000000000000D+00
     .510000000000D+02  .828750000000D+02  .456519015849D-08 -.249458494445D+01
     .425055623055D-05  .572602846660D-02  .115968286991D-04  .515478363800D+04
     .424800000000D+06 -.126659870148D-06 -.271204375535D+01  .521540641785D-07
     .949314413979D+00  .148968750000D+03 -.384473937443D+00 -.796926052312D-08
     .242152943785D-09  .100000000000D+01  .160200000000D+04  .000000000000D+00
     .240000000000D+01  .000000000000D+00 -.139698386192D-08  .510000000000D+02
     .417606000000D+06  .400000000000D+01
25 10  9 23 22  0  0.0 -.425213947892D-04 -.147792889038D-11  .000000000000D+00
     .820000000000D+02  .323437500000D+02  .493984862167D-08 -.825084469840D+00
     .152550637722D-05  .738592119887D-03  .393576920033D-05  .515376410675D+04
     .424800000000D+06  .167638063431D-07  .140944532208D+01  .149011611938D-07
     .960497951635D+00  .307187500000D+03  .195879487569D+01 -.839213528041D-08
     .318227541169D-09  .100000000000D+01  .160200000000D+04  .100000000000D+01
     .240000000000D+01  .000000000000D+00  .465661287308D-08  .820000000000D+02
     .417606000000D+06  .400000000000D+01
26 10  9 23 22  0  0.0 -.165249221027D-04 -.727595761418D-11  .000000000000D+00
     .450000000000D+02 -.968750000000D+02  .366300972192D-08 -.298092031852D+01
    -.490061938763D-05  .198066378944D-01  .823102891445D-05  .515364296722D+04
     .424800000000D+06  .169500708580D-06 -.600037653542D+00 -.171363353729D-06
     .989692237409D+00  .232687500000D+03  .111077380483D+01 -.741530887738D-08
    -.412160025262D-09  .100000000000D+01  .160200000000D+04  .000000000000D+00
     .240000000000D+01  .000000000000D+00 -.605359673500D-08  .450000000000D+02
     .417606000000D+06  .400000000000D+01
27 10  9 23 22  0  0.0  .191777478904D-03  .352429196937D-11  .000000000000D+00
     .900000000000D+01  .279375000000D+02  .363800868052D-08 -.184895744000D+01
     .183470547199D-05  .215783368330D-01  .115595757961D-04  .515358489799D+04
     .424800000000D+06  .987201929092D-07  .326739458513D+00  .497326254845D-06
     .979681935182D+00  .164406250000D+03 -.136962398245D+01 -.750316967999D-08
     .297869550320D-09  .100000000000D+01  .160200000000D+04  .000000000000D+00
     .240000000000D+01  .000000000000D+00 -.419095158577D-08  .900000000000D+01
     .417606000000D+06  .400000000000D+01
28 10  9 23 22  0  0.0 -.241724774241D-05  .147792889038D-11  .000000000000D+00
     .106000000000D+03  .274687500000D+02  .478805658463D-08 -.807723542619D+00
     .179186463356D-05  .161959321704D-01  .427290797234D-05  .515367275047D+04
     .424800000000D+06 -.113621354103D-06  .146155568853D+01  .301748514175D-06
     .971174686192D+00  .306062500000D+03 -.194552061598D+01 -.850463996668D-08
     .322156276245D-09  .100000000000D+01  .160200000000D+04  .000000000000D+00
     .340000000000D+01  .000000000000D+00 -.107102096081D-07  .106000000000D+03
     .417606000000D+06  .400000000000D+01
29 10  9 23 22  0  0.0  .151463318616D-03  .261479726760D-11  .000000000000D+00
     .580000000000D+02 -.617500000000D+02  .469269546960D-08  .123783174955D+01
    -.313855707645D-05  .264172744937D-02  .848993659019D-05  .515366658211D+04
     .424800000000D+06  .000000000000D+00  .250573177749D+01 -.633299350739D-07
     .961029062581D+00  .219093750000D+03 -.125028234543D+01 -.809605151876D-08
    -.373229832235D-09  .100000000000D+01  .160200000000D+04  .000000000000D+00
     .240000000000D+01  .000000000000D+00 -.884756445885D-08  .580000000000D+02
     .417606000000D+06  .400000000000D+01
30 10  9 23 22  0  0.0  .281032174826D-03  .341060513165D-11  .000000000000D+00
     .920000000000D+02  .340937500000D+02  .507521140293D-08 -.416862690633D+00
     .168941915035D-05  .126228512963D-01  .430643558502D-05  .515368357658D+04
     .424800000000D+06 -.122934579849D-06  .138093692253D+01  .117346644402D-06
     .957150353268D+00  .301593750000D+03  .151732169415D+01 -.864786021809D-08
     .391444876679D-09  .100000000000D+01  .160200000000D+04  .000000000000D+00
     .340000000000D+01  .000000000000D+00 -.791624188423D-08  .920000000000D+02
     .417606000000D+06  .400000000000D+01
31 10  9 23 22  0  0.0 -.676279887557D-05  .318323145621D-11  .000000000000D+00
     .140000000000D+02  .282812500000D+02  .366158109098D-08  .195861538003D+01
     .154972076416D-05  .740314379800D-02  .121276825666D-04  .515377303123D+04
     .424800000000D+06  .109896063805D-06  .382435767791D+00  .100582838058D-06
     .978201507436D+00  .151125000000D+03 -.105156317134D+01 -.749316926343D-08
     .352871841386D-09  .100000000000D+01  .160200000000D+04  .000000000000D+00
     .240000000000D+01  .000000000000D+00 -.130385160446D-07  .140000000000D+02
     .417606000000D+06  .400000000000D+01
32 10  9 23 22  0  0.0 -.923727639019D-04 -.898126018001D-11  .000000000000D+00
     .220000000000D+02  .333750000000D+02  .503699552537D-08  .276204669614D+01
     .174157321453D-05  .126617870992D-01  .206753611565D-05  .515362108612D+04
     .424800000000D+06  .134110450745D-06 -.163061794217D+01  .184401869774D-06
     .957335953685D+00  .335937500000D+03 -.931143869857D+00 -.841463621766D-08
    -.207151485834D-10  .100000000000D+01  .160200000000D+04  .000000000000D+00
     .240000000000D+01  .000000000000D+00 -.325962901115D-08  .220000000000D+02
     .417606000000D+06  .400000000000D+01
28 10  9 23 21 59 44.0 -.242237001657D-05  .147792889038D-11  .000000000000D+00
     .140000000000D+02  .274687500000D+02  .478805658463D-08 -.810057572824D+00
     .179186463356D-05  .161959293764D-01  .427290797234D-05  .515367275047D+04
     .424784000000D+06 -.113621354103D-06  .146155581873D+01  .301748514175D-06
     .971174671563D+00  .306062500000D+03 -.194552033656D+01 -.850463996668D-08
     .322156276245D-09  .100000000000D+01  .160200000000D+04  .000000000000D+00
     .240000000000D+01  .000000000000D+00 -.107102096081D-07  .140000000000D+02
     .419136000000D+06  .400000000000D+01
